[{"OBJECT_NAME":"STARLINK-6190","OBJECT_ID":"2023-078H","EPOCH":"2026-03-09T22:48:45.792000","MEAN_MOTION":14.98324844,"ECCENTRICITY":0.0002323,"INCLINATION":70.0012,"RA_OF_ASC_NODE":3.8987,"ARG_OF_PERICENTER":268.2957,"MEAN_ANOMALY":91.7936,"EPHEMERIS_TYPE":0,"CLASSIFICATION_TYPE":"U","NORAD_CAT_ID":56774,"ELEMENT_SET_NO":999,"REV_AT_EPOCH":15222,"BSTAR":-3.4467296e-5,"MEAN_MOTION_DOT":-5.04e-6,"MEAN_MOTION_DDOT":0},{"OBJECT_NAME":"HAWK-9B","OBJECT_ID":"2024-066J","EPOCH":"2026-03-09T10:21:05.061312","MEAN_MOTION":14.9877824,"ECCENTRICITY":0.00037519,"INCLINATION":45.6215,"RA_OF_ASC_NODE":73.5456,"ARG_OF_PERICENTER":229.3903,"MEAN_ANOMALY":130.6652,"EPHEMERIS_TYPE":0,"CLASSIFICATION_TYPE":"U","NORAD_CAT_ID":59450,"ELEMENT_SET_NO":999,"REV_AT_EPOCH":10486,"BSTAR":0.00023214291,"MEAN_MOTION_DOT":2.608e-5,"MEAN_MOTION_DDOT":0}]
